OBJECT_NAME,OBJECT_ID,EPOCH,MEAN_MOTION,ECCENTRICITY,INCLINATION,RA_OF_ASC_NODE,ARG_OF_PERICENTER,MEAN_ANOMALY,EPHEMERIS_TYPE,CLASSIFICATION_TYPE,NORAD_CAT_ID,ELEMENT_SET_NO,REV_AT_EPOCH,BSTAR,MEAN_MOTION_DOT,MEAN_MOTION_DDOT
STARLINK-37834,2026-126J,2026-06-19T13:45:23.869152,15.75235776,.00021782,97.2831,30.7029,115.5065,244.6426,0,U,69428,999,312,.60679799E-3,.91541E-3,0
STARLINK-37857,2026-126K,2026-06-19T13:36:57.670560,15.80031812,.0000942,97.2823,30.7109,101.8615,258.2759,0,U,69429,999,312,.10553617E-2,.199462E-2,0
STARLINK-37866,2026-126L,2026-06-19T13:36:57.268800,15.80416095,.00016747,97.2827,30.7101,89.0973,271.0487,0,U,69430,999,317,.97647287E-3,.18753E-2,0
STARLINK-37555,2026-126M,2026-06-19T13:36:26.310816,15.80025795,.00034331,97.2823,30.7115,122.1319,238.0282,0,U,69431,999,317,.94751456E-3,.178623E-2,0
STARLINK-37870,2026-126N,2026-06-19T13:36:10.863360,15.79998585,.00014138,97.2823,30.7120,117.2678,242.8734,0,U,69432,999,312,.75265094E-3,.141039E-2,0
STARLINK-37872,2026-126P,2026-06-19T13:35:55.189536,15.80017070,.00026428,97.2824,30.7123,123.8485,236.3035,0,U,69433,999,312,.95511045E-3,.179992E-2,0
STARLINK-37815,2026-126Q,2026-06-19T13:56:34.886976,15.75247566,.00013151,97.2831,30.6914,110.5631,249.5775,0,U,69434,999,312,.12151675E-2,.185574E-2,0
STARLINK-37801,2026-126R,2026-06-19T13:36:30.422592,15.77587389,.00029731,97.2825,30.7119,185.9362,174.1870,0,U,69435,999,317,-.16229191E-3,-.26943E-3,0
STARLINK-37800,2026-126S,2026-06-19T13:39:18.145728,15.75243354,.00015443,97.2829,30.7086,121.9527,238.1889,0,U,69436,999,312,.79570312E-3,.120522E-2,0
STARLINK-37792,2026-126T,2026-06-19T13:34:53.005728,15.80027299,.00008586,97.2826,30.7129,120.5945,239.5407,0,U,69437,999,317,.10552271E-2,.199395E-2,0
STARLINK-37783,2026-126U,2026-06-19T13:34:21.653760,15.80013597,.0002059,97.2824,30.7132,116.3495,243.7984,0,U,69438,999,317,.89390866E-3,.168184E-2,0
STARLINK-37771,2026-126V,2026-06-19T14:02:40.549920,15.75237779,.00014222,97.2826,30.6848,103.1123,257.0301,0,U,69439,999,312,.71322679E-3,.107828E-2,0
STARLINK-37747,2026-126W,2026-06-19T13:34:37.229088,15.80024569,.00021139,97.2826,30.7132,109.0405,251.1092,0,U,69440,999,312,.85931714E-3,.161629E-2,0
STARLINK-37629,2026-127A,2026-06-19T14:10:35.161536,15.78047800,.00011801,53.1583,250.4743,37.6090,322.5014,0,U,69443,999,178,-.47919594E-2,-.762077E-2,0
STARLINK-37509,2026-127B,2026-06-19T12:35:34.759968,15.80795718,.00014567,53.1584,250.7726,350.9906,9.1090,0,U,69444,999,177,-.19053067E-3,-.38006E-3,0
STARLINK-37641,2026-127C,2026-06-19T12:33:28.035360,15.80950344,.00012465,53.1585,250.7634,23.6279,336.4801,0,U,69445,999,177,.88649639E-3,.178567E-2,0
STARLINK-37522,2026-127D,2026-06-19T14:03:52.831296,15.77718387,.00030209,53.1584,250.4440,167.5191,192.5906,0,U,69446,999,178,-.52822931E-2,-.822413E-2,0
STARLINK-37640,2026-127E,2026-06-19T12:29:28.096512,15.80961166,.00011166,53.1581,250.7436,87.9469,272.1681,0,U,69447,999,177,.89233528E-3,.179864E-2,0
STARLINK-37572,2026-127F,2026-06-19T12:25:17.017248,15.80973597,.00012888,53.1584,250.7246,33.3986,326.7118,0,U,69448,999,177,.1092425E-2,.221557E-2,0
STARLINK-37643,2026-127G,2026-06-19T12:26:04.772256,15.76780270,.00024305,53.1589,250.7251,123.6138,236.5115,0,U,69449,999,177,-.35631274E-2,-.549176E-2,0
STARLINK-37601,2026-127H,2026-06-19T12:25:17.071680,15.76924630,.00167109,53.1583,250.7254,2.6152,357.4953,0,U,69450,999,177,.35397219E-2,.633073E-2,0
STARLINK-37578,2026-127J,2026-06-19T12:20:02.070240,15.80985844,.00006818,53.1587,250.6977,56.9380,303.1708,0,U,69451,999,177,.12169798E-2,.247802E-2,0
STARLINK-37577,2026-127K,2026-06-19T12:18:11.546496,15.80946338,.00009378,53.1586,250.6891,63.5969,296.5149,0,U,69452,999,177,.79965297E-3,.160638E-2,0
STARLINK-37500,2026-127L,2026-06-19T12:14:06.608544,15.80971958,.00009349,53.1585,250.6709,68.3094,291.8029,0,U,69453,999,177,.11458672E-2,.232718E-2,0
STARLINK-37575,2026-127M,2026-06-19T12:13:46.833312,15.80954079,.00012161,53.1582,250.6681,46.3892,313.7232,0,U,69454,999,177,.85032344E-3,.171132E-2,0
STARLINK-37642,2026-127N,2026-06-19T13:39:09.192096,15.79221614,.00006925,53.1594,250.3267,63.2957,296.8136,0,U,69455,999,178,-.52834497E-2,-.87438E-2,0
STARLINK-37513,2026-127P,2026-06-19T13:33:18.594720,15.80938200,.0000976,53.1585,250.2977,76.9601,283.1530,0,U,69456,999,178,.77495655E-3,.155503E-2,0
STARLINK-37563,2026-127Q,2026-06-19T11:58:32.038752,15.80975773,.00013242,53.1582,250.5975,74.0630,286.0539,0,U,69457,999,177,.10364957E-2,.209913E-2,0
STARLINK-37565,2026-127R,2026-06-19T11:59:34.742688,15.80997377,.00009944,53.1584,250.6023,64.7924,295.3201,0,U,69458,999,177,.1278948E-2,.260995E-2,0
STARLINK-37498,2026-127S,2026-06-19T07:26:25.441152,15.80924662,.00036646,53.1581,251.5531,350.3814,9.7138,0,U,69459,999,174,.11255549E-1,.2609721E-1,0
