STARLINK-37834          
1 69428U 26126J   26170.57319293  .00091541  00000+0  60680-3 0  9993
2 69428  97.2831  30.7029 0002178 115.5065 244.6426 15.75235776  3125
STARLINK-37857          
1 69429U 26126K   26170.56733415  .00199462  00000+0  10554-2 0  9994
2 69429  97.2823  30.7109 0000942 101.8615 258.2759 15.80031812  3123
STARLINK-37866          
1 69430U 26126L   26170.56732950  .00187530  00000+0  97647-3 0  9991
2 69430  97.2827  30.7101 0001674  89.0973 271.0487 15.80416095  3174
STARLINK-37555          
1 69431U 26126M   26170.56697119  .00178623  00000+0  94751-3 0  9995
2 69431  97.2823  30.7115 0003433 122.1319 238.0282 15.80025795  3173
STARLINK-37870          
1 69432U 26126N   26170.56679240  .00141039  00000+0  75265-3 0  9991
2 69432  97.2823  30.7120 0001413 117.2678 242.8734 15.79998585  3123
STARLINK-37872          
1 69433U 26126P   26170.56661099  .00179992  00000+0  95511-3 0  9990
2 69433  97.2824  30.7123 0002642 123.8485 236.3035 15.80017070  3127
STARLINK-37815          
1 69434U 26126Q   26170.58095934  .00185574  00000+0  12152-2 0  9994
2 69434  97.2831  30.6914 0001315 110.5631 249.5775 15.75247566  3121
STARLINK-37801          
1 69435U 26126R   26170.56701878 -.00026943  00000+0 -16229-3 0  9990
2 69435  97.2825  30.7119 0002973 185.9362 174.1870 15.77587389  3177
STARLINK-37800          
1 69436U 26126S   26170.56896002  .00120522  00000+0  79570-3 0  9999
2 69436  97.2829  30.7086 0001544 121.9527 238.1889 15.75243354  3126
STARLINK-37792          
1 69437U 26126T   26170.56589127  .00199395  00000+0  10552-2 0  9995
2 69437  97.2826  30.7129 0000858 120.5945 239.5407 15.80027299  3178
STARLINK-37783          
1 69438U 26126U   26170.56552840  .00168184  00000+0  89391-3 0  9998
2 69438  97.2824  30.7132 0002059 116.3495 243.7984 15.80013597  3172
STARLINK-37771          
1 69439U 26126V   26170.58519155  .00107828  00000+0  71323-3 0  9997
2 69439  97.2826  30.6848 0001422 103.1123 257.0301 15.75237779  3123
STARLINK-37747          
1 69440U 26126W   26170.56570867  .00161629  00000+0  85932-3 0  9994
2 69440  97.2826  30.7132 0002113 109.0405 251.1092 15.80024569  3127
STARLINK-37629          
1 69443U 26127A   26170.59068474 -.00762077  00000+0 -47920-2 0  9997
2 69443  53.1583 250.4743 0001180  37.6090 322.5014 15.78047800  1786
STARLINK-37509          
1 69444U 26127B   26170.52470787 -.00038006  00000+0 -19053-3 0  9990
2 69444  53.1584 250.7726 0001456 350.9906   9.1090 15.80795718  1777
STARLINK-37641          
1 69445U 26127C   26170.52324115  .00178567  00000+0  88650-3 0  9998
2 69445  53.1585 250.7634 0001246  23.6279 336.4801 15.80950344  1775
STARLINK-37522          
1 69446U 26127D   26170.58602814 -.00822413  00000+0 -52823-2 0  9990
2 69446  53.1584 250.4440 0003020 167.5191 192.5906 15.77718387  1783
STARLINK-37640          
1 69447U 26127E   26170.52046408  .00179864  00000+0  89234-3 0  9996
2 69447  53.1581 250.7436 0001116  87.9469 272.1681 15.80961166  1779
STARLINK-37572          
1 69448U 26127F   26170.51755807  .00221557  00000+0  10924-2 0  9992
2 69448  53.1584 250.7246 0001288  33.3986 326.7118 15.80973597  1773
STARLINK-37643          
1 69449U 26127G   26170.51811079 -.00549176  00000+0 -35631-2 0  9991
2 69449  53.1589 250.7251 0002430 123.6138 236.5115 15.76780270  1771
STARLINK-37601          
1 69450U 26127H   26170.51755870  .00633073  00000+0  35397-2 0  9996
2 69450  53.1583 250.7254 0016710   2.6152 357.4953 15.76924630  1771
STARLINK-37578          
1 69451U 26127J   26170.51391285  .00247802  00000+0  12170-2 0  9998
2 69451  53.1587 250.6977 0000681  56.9380 303.1708 15.80985844  1777
STARLINK-37577          
1 69452U 26127K   26170.51263364  .00160638  00000+0  79965-3 0  9992
2 69452  53.1586 250.6891 0000937  63.5969 296.5149 15.80946338  1772
STARLINK-37500          
1 69453U 26127L   26170.50979871  .00232718  00000+0  11459-2 0  9991
2 69453  53.1585 250.6709 0000934  68.3094 291.8029 15.80971958  1770
STARLINK-37575          
1 69454U 26127M   26170.50956983  .00171132  00000+0  85032-3 0  9992
2 69454  53.1582 250.6681 0001216  46.3892 313.7232 15.80954079  1778
STARLINK-37642          
1 69455U 26127N   26170.56885639 -.00874380  00000+0 -52834-2 0  9998
2 69455  53.1594 250.3267 0000692  63.2957 296.8136 15.79221614  1781
STARLINK-37513          
1 69456U 26127P   26170.56479855  .00155503  00000+0  77496-3 0  9997
2 69456  53.1585 250.2977 0000976  76.9601 283.1530 15.80938200  1786
STARLINK-37563          
1 69457U 26127Q   26170.49898193  .00209913  00000+0  10365-2 0  9996
2 69457  53.1582 250.5975 0001324  74.0630 286.0539 15.80975773  1770
STARLINK-37565          
1 69458U 26127R   26170.49970767  .00260995  00000+0  12789-2 0  9994
2 69458  53.1584 250.6023 0000994  64.7924 295.3201 15.80997377  1775
STARLINK-37498          
1 69459U 26127S   26170.31001668  .02609721  00000+0  11256-1 0  9994
2 69459  53.1581 251.5531 0003664 350.3814   9.7138 15.80924662  1746
